{"type": "FeatureCollection", "features": [ {"type": "Feature", "properties": {"norad_id": 60453, "name": "LEGION 4", "group": "resource", "lat": -43.22520230598346, "lon": -51.93179070079492, "alt_km": 517.0938090808859, "timestamp": "2025-12-09T16:56:36.238109+00:00", "meta": {"OBJECT_NAME": "LEGION 4", "OBJECT_ID": "2024-146B", "EPOCH": "2025-12-09T12:39:25.394400", "MEAN_MOTION": 15.15772337, "ECCENTRICITY": 0.0009759, "INCLINATION": 45.0385, "RA_OF_ASC_NODE": 59.0945, "ARG_OF_PERICENTER": 294.4297, "MEAN_ANOMALY": 65.5563, "EPHEMERIS_TYPE": 0, "CLASSIFICATION_TYPE": "U", "NORAD_CAT_ID": 60453, "ELEMENT_SET_NO": 999, "REV_AT_EPOCH": 7209, "BSTAR": 0.00042457, "MEAN_MOTION_DOT": 7.992e-05, "MEAN_MOTION_DDOT": 0}, "tle": {"line1": "1 60453U 24146B   25343.52737725  .00007992  00000+0  42457-3 0  9991", "line2": "2 60453  45.0385  59.0945 0009759 294.4297  65.5563 15.15772337 72093"}}, "geometry": {"type": "Point", "coordinates": [-51.93179070079492, -43.22520230598346]}}, {"type": "Feature", "properties": {"norad_id": 60989, "name": "SENTINEL-2C", "group": "resource", "lat": -45.1715608946957, "lon": -132.491938903054, "alt_km": 796.2369080247008, "timestamp": "2025-12-09T16:56:36.238120+00:00", "meta": {"OBJECT_NAME": "SENTINEL-2C", "OBJECT_ID": "2024-157A", "EPOCH": "2025-12-09T10:51:24.113088", "MEAN_MOTION": 14.30815888, "ECCENTRICITY": 0.0001194, "INCLINATION": 98.5685, "RA_OF_ASC_NODE": 55.9822, "ARG_OF_PERICENTER": 97.8773, "MEAN_ANOMALY": 262.2545, "EPHEMERIS_TYPE": 0, "CLASSIFICATION_TYPE": "U", "NORAD_CAT_ID": 60989, "ELEMENT_SET_NO": 999, "REV_AT_EPOCH": 6585, "BSTAR": 0.00014031, "MEAN_MOTION_DOT": 3.24e-06, "MEAN_MOTION_DDOT": 0}, "tle": {"line1": "1 60989U 24157A   25343.45236242  .00000324  00000+0  14031-3 0  9996", "line2": "2 60989  98.5685  55.9822 0001194  97.8773 262.2545 14.30815888 65858"}}, "geometry": {"type": "Point", "coordinates": [-132.491938903054, -45.1715608946957]}}, {"type": "Feature", "properties": {"norad_id": 61735, "name": "IONOSFERA-M 1", "group": "resource", "lat": -39.96326947189125, "lon": 26.169424563384336, "alt_km": 823.4288252255492, "timestamp": "2025-12-09T16:56:36.238131+00:00", "meta": {"OBJECT_NAME": "IONOSFERA-M 1", "OBJECT_ID": "2024-199A", "EPOCH": "2025-12-09T12:32:04.940160", "MEAN_MOTION": 14.22713059, "ECCENTRICITY": 0.0001112, "INCLINATION": 98.7412, "RA_OF_ASC_NODE": 213.3951, "ARG_OF_PERICENTER": 26.2278, "MEAN_ANOMALY": 333.8956, "EPHEMERIS_TYPE": 0, "CLASSIFICATION_TYPE": "U", "NORAD_CAT_ID": 61735, "ELEMENT_SET_NO": 999, "REV_AT_EPOCH": 10073, "BSTAR": 8.6808e-05, "MEAN_MOTION_DOT": 1.5e-06, "MEAN_MOTION_DDOT": 0}, "tle": {"line1": "1 61735U 24199A   25343.52227940  .00000150  00000+0  86808-4 0  9994", "line2": "2 61735  98.7412 213.3951 0001112  26.2278 333.8956 14.22713059100733"}}, "geometry": {"type": "Point", "coordinates": [26.169424563384336, -39.96326947189125]}}, {"type": "Feature", "properties": {"norad_id": 61736, "name": "IONOSFERA-M 2", "group": "resource", "lat": 42.36292422475261, "lon": -154.57502610555713, "alt_km": 812.3009349756512, "timestamp": "2025-12-09T16:56:36.238141+00:00", "meta": {"OBJECT_NAME": "IONOSFERA-M 2", "OBJECT_ID": "2024-199B", "EPOCH": "2025-12-09T13:21:58.757184", "MEAN_MOTION": 14.22715238, "ECCENTRICITY": 0.0001574, "INCLINATION": 98.7404, "RA_OF_ASC_NODE": 213.342, "ARG_OF_PERICENTER": 114.2993, "MEAN_ANOMALY": 245.8349, "EPHEMERIS_TYPE": 0, "CLASSIFICATION_TYPE": "U", "NORAD_CAT_ID": 61736, "ELEMENT_SET_NO": 999, "REV_AT_EPOCH": 10386, "BSTAR": 8.5672e-05, "MEAN_MOTION_DOT": 1.48e-06, "MEAN_MOTION_DDOT": 0}, "tle": {"line1": "1 61736U 24199B   25343.55693006  .00000148  00000+0  85672-4 0  9993", "line2": "2 61736  98.7404 213.3420 0001574 114.2993 245.8349 14.22715238103866"}}, "geometry": {"type": "Point", "coordinates": [-154.57502610555713, 42.36292422475261]}}, {"type": "Feature", "properties": {"norad_id": 63772, "name": "BIOMASS", "group": "resource", "lat": 71.50510012435625, "lon": 13.857473388633341, "alt_km": 661.3015897000068, "timestamp": "2025-12-09T16:56:36.238151+00:00", "meta": {"OBJECT_NAME": "BIOMASS", "OBJECT_ID": "2025-090A", "EPOCH": "2025-12-09T11:33:00.255744", "MEAN_MOTION": 14.67534262, "ECCENTRICITY": 0.0001205, "INCLINATION": 98.0699, "RA_OF_ASC_NODE": 168.5387, "ARG_OF_PERICENTER": 78.6099, "MEAN_ANOMALY": 281.5241, "EPHEMERIS_TYPE": 0, "CLASSIFICATION_TYPE": "U", "NORAD_CAT_ID": 63772, "ELEMENT_SET_NO": 999, "REV_AT_EPOCH": 3286, "BSTAR": 0.00035298, "MEAN_MOTION_DOT": 1.954e-05, "MEAN_MOTION_DDOT": 0}, "tle": {"line1": "1 63772U 25090A   25343.48125296  .00001954  00000+0  35298-3 0  9993", "line2": "2 63772  98.0699 168.5387 0001205  78.6099 281.5241 14.67534262 32865"}}, "geometry": {"type": "Point", "coordinates": [13.857473388633341, 71.50510012435625]}}, {"type": "Feature", "properties": {"norad_id": 64694, "name": "GOSAT-GW (IBUKI GW)", "group": "resource", "lat": -43.63100988545065, "lon": -72.97979095741597, "alt_km": 676.099624504297, "timestamp": "2025-12-09T16:56:36.238162+00:00", "meta": {"OBJECT_NAME": "GOSAT-GW (IBUKI GW)", "OBJECT_ID": "2025-141A", "EPOCH": "2025-12-08T18:14:08.043648", "MEAN_MOTION": 14.67565462, "ECCENTRICITY": 0.00014946, "INCLINATION": 98.0423, "RA_OF_ASC_NODE": 278.345, "ARG_OF_PERICENTER": 82.5316, "MEAN_ANOMALY": 277.6059, "EPHEMERIS_TYPE": 0, "CLASSIFICATION_TYPE": "U", "NORAD_CAT_ID": 64694, "ELEMENT_SET_NO": 999, "REV_AT_EPOCH": 2391, "BSTAR": 0.00038232231, "MEAN_MOTION_DOT": 2.122e-05, "MEAN_MOTION_DDOT": 0}, "tle": {"line1": "1 64694U 25141A   25342.75981532  .00002122  00000+0  38232-3 0  9995", "line2": "2 64694  98.0423 278.3450 0001494  82.5316 277.6059 14.67565462 23916"}}, "geometry": {"type": "Point", "coordinates": [-72.97979095741597, -43.63100988545065]}}, {"type": "Feature", "properties": {"norad_id": 64876, "name": "IONOSFERA-M 3", "group": "resource", "lat": 75.82680826793829, "lon": 162.361027298875, "alt_km": 811.9508757695176, "timestamp": "2025-12-09T16:56:36.238172+00:00", "meta": {"OBJECT_NAME": "IONOSFERA-M 3", "OBJECT_ID": "2025-155A", "EPOCH": "2025-12-09T11:24:02.179872", "MEAN_MOTION": 14.2143981, "ECCENTRICITY": 0.0002312, "INCLINATION": 98.5778, "RA_OF_ASC_NODE": 305.4336, "ARG_OF_PERICENTER": 65.1201, "MEAN_ANOMALY": 295.0216, "EPHEMERIS_TYPE": 0, "CLASSIFICATION_TYPE": "U", "NORAD_CAT_ID": 64876, "ELEMENT_SET_NO": 999, "REV_AT_EPOCH": 1945, "BSTAR": 9.5921e-05, "MEAN_MOTION_DOT": 1.67e-06, "MEAN_MOTION_DDOT": 0}, "tle": {"line1": "1 64876U 25155A   25343.47502523  .00000167  00000+0  95921-4 0  9997", "line2": "2 64876  98.5778 305.4336 0002312  65.1201 295.0216 14.21439810 19451"}}, "geometry": {"type": "Point", "coordinates": [162.361027298875, 75.82680826793829]}}, {"type": "Feature", "properties": {"norad_id": 64877, "name": "IONOSFERA-M 4", "group": "resource", "lat": -75.37139889112667, "lon": -19.09409378613182, "alt_km": 828.7611061165599, "timestamp": "2025-12-09T16:56:36.238182+00:00", "meta": {"OBJECT_NAME": "IONOSFERA-M 4", "OBJECT_ID": "2025-155B", "EPOCH": "2025-12-09T12:14:32.099136", "MEAN_MOTION": 14.2144093, "ECCENTRICITY": 0.0001669, "INCLINATION": 98.5777, "RA_OF_ASC_NODE": 305.3873, "ARG_OF_PERICENTER": 66.6609, "MEAN_ANOMALY": 293.4744, "EPHEMERIS_TYPE": 0, "CLASSIFICATION_TYPE": "U", "NORAD_CAT_ID": 64877, "ELEMENT_SET_NO": 999, "REV_AT_EPOCH": 1945, "BSTAR": 0.00010038, "MEAN_MOTION_DOT": 1.77e-06, "MEAN_MOTION_DDOT": 0}, "tle": {"line1": "1 64877U 25155B   25343.51009374  .00000177  00000+0  10038-3 0  9995", "line2": "2 64877  98.5777 305.3873 0001669  66.6609 293.4744 14.21440930 19451"}}, "geometry": {"type": "Point", "coordinates": [-19.09409378613182, -75.37139889112667]}}, {"type": "Feature", "properties": {"norad_id": 64899, "name": "MICROCARB", "group": "resource", "lat": -63.71921506116551, "lon": -137.4524795487069, "alt_km": 661.8848571390799, "timestamp": "2025-12-09T16:56:36.238193+00:00", "meta": {"OBJECT_NAME": "MICROCARB", "OBJECT_ID": "2025-156A", "EPOCH": "2025-12-09T10:56:29.937984", "MEAN_MOTION": 14.72049485, "ECCENTRICITY": 0.0016934, "INCLINATION": 98.0028, "RA_OF_ASC_NODE": 58.854, "ARG_OF_PERICENTER": 154.8146, "MEAN_ANOMALY": 205.389, "EPHEMERIS_TYPE": 0, "CLASSIFICATION_TYPE": "U", "NORAD_CAT_ID": 64899, "ELEMENT_SET_NO": 999, "REV_AT_EPOCH": 2005, "BSTAR": 0.00022635, "MEAN_MOTION_DOT": 1.375e-05, "MEAN_MOTION_DDOT": 0}, "tle": {"line1": "1 64899U 25156A   25343.45590206  .00001375  00000+0  22635-3 0  9999", "line2": "2 64899  98.0028  58.8540 0016934 154.8146 205.3890 14.72049485 20055"}}, "geometry": {"type": "Point", "coordinates": [-137.4524795487069, -63.71921506116551]}}, {"type": "Feature", "properties": {"norad_id": 64900, "name": "CO3D 3", "group": "resource", "lat": 57.925574540500605, "lon": -107.85722136639109, "alt_km": 498.7541323966043, "timestamp": "2025-12-09T16:56:36.238203+00:00", "meta": {"OBJECT_NAME": "CO3D 3", "OBJECT_ID": "2025-156B", "EPOCH": "2025-12-08T18:17:44.446272", "MEAN_MOTION": 15.2019842, "ECCENTRICITY": 0.0001356, "INCLINATION": 97.4341, "RA_OF_ASC_NODE": 59.1865, "ARG_OF_PERICENTER": 106.1908, "MEAN_ANOMALY": 253.9476, "EPHEMERIS_TYPE": 0, "CLASSIFICATION_TYPE": "U", "NORAD_CAT_ID": 64900, "ELEMENT_SET_NO": 999, "REV_AT_EPOCH": 2060, "BSTAR": 0.0004581347, "MEAN_MOTION_DOT": 9.862e-05, "MEAN_MOTION_DDOT": 0}, "tle": {"line1": "1 64900U 25156B   25342.76231998  .00009862  00000+0  45813-3 0  9997", "line2": "2 64900  97.4341  59.1865 0001356 106.1908 253.9476 15.20198420 20609"}}, "geometry": {"type": "Point", "coordinates": [-107.85722136639109, 57.925574540500605]}}]}